CCSDS_OMM_VERS = 2.0
CREATION_DATE  = 
ORIGINATOR     = 

OBJECT_NAME    = KUIPER-00266
OBJECT_ID      = 2026-030AB
CENTER_NAME    = EARTH
REF_FRAME      = TEME
TIME_SYSTEM    = UTC
MEAN_ELEMENT_THEORY = SGP/SGP4

EPOCH          = 2026-03-11T18:51:11.615904
MEAN_MOTION    = 15.30706366
ECCENTRICITY   = .00232642
INCLINATION    = 51.8812
RA_OF_ASC_NODE = 209.8413
ARG_OF_PERICENTER = 81.9114
MEAN_ANOMALY   = 278.4508

EPHEMERIS_TYPE = 0
CLASSIFICATION_TYPE = U
NORAD_CAT_ID   = 67789
ELEMENT_SET_NO = 999
REV_AT_EPOCH   = 540
BSTAR          = .77785293E-3
MEAN_MOTION_DOT = .23315E-3
MEAN_MOTION_DDOT = 0

CCSDS_OMM_VERS = 2.0
CREATION_DATE  = 
ORIGINATOR     = 

OBJECT_NAME    = KUIPER-00268
OBJECT_ID      = 2026-030AC
CENTER_NAME    = EARTH
REF_FRAME      = TEME
TIME_SYSTEM    = UTC
MEAN_ELEMENT_THEORY = SGP/SGP4

EPOCH          = 2026-03-11T20:07:41.908800
MEAN_MOTION    = 15.36161267
ECCENTRICITY   = .00048621
INCLINATION    = 51.8858
RA_OF_ASC_NODE = 208.7369
ARG_OF_PERICENTER = 24.2947
MEAN_ANOMALY   = 335.8268

EPHEMERIS_TYPE = 0
CLASSIFICATION_TYPE = U
NORAD_CAT_ID   = 67790
ELEMENT_SET_NO = 999
REV_AT_EPOCH   = 542
BSTAR          = .1246637E-2
MEAN_MOTION_DOT = .44492E-3
MEAN_MOTION_DDOT = 0

CCSDS_OMM_VERS = 2.0
CREATION_DATE  = 
ORIGINATOR     = 

OBJECT_NAME    = KUIPER-00270
OBJECT_ID      = 2026-030AD
CENTER_NAME    = EARTH
REF_FRAME      = TEME
TIME_SYSTEM    = UTC
MEAN_ELEMENT_THEORY = SGP/SGP4

EPOCH          = 2026-03-11T19:09:25.262784
MEAN_MOTION    = 15.34759996
ECCENTRICITY   = .0010354
INCLINATION    = 51.8796
RA_OF_ASC_NODE = 209.1964
ARG_OF_PERICENTER = 60.3934
MEAN_ANOMALY   = 299.8083

EPHEMERIS_TYPE = 0
CLASSIFICATION_TYPE = U
NORAD_CAT_ID   = 67791
ELEMENT_SET_NO = 999
REV_AT_EPOCH   = 541
BSTAR          = .12592562E-2
MEAN_MOTION_DOT = .4301E-3
MEAN_MOTION_DDOT = 0

CCSDS_OMM_VERS = 2.0
CREATION_DATE  = 
ORIGINATOR     = 

OBJECT_NAME    = KUIPER-00274
OBJECT_ID      = 2026-030AE
CENTER_NAME    = EARTH
REF_FRAME      = TEME
TIME_SYSTEM    = UTC
MEAN_ELEMENT_THEORY = SGP/SGP4

EPOCH          = 2026-03-11T18:39:11.664576
MEAN_MOTION    = 15.29936645
ECCENTRICITY   = .00180288
INCLINATION    = 51.8832
RA_OF_ASC_NODE = 209.7955
ARG_OF_PERICENTER = 77.5662
MEAN_ANOMALY   = 282.7338

EPHEMERIS_TYPE = 0
CLASSIFICATION_TYPE = U
NORAD_CAT_ID   = 67792
ELEMENT_SET_NO = 999
REV_AT_EPOCH   = 540
BSTAR          = .45972709E-3
MEAN_MOTION_DOT = .13238E-3
MEAN_MOTION_DDOT = 0

CCSDS_OMM_VERS = 2.0
CREATION_DATE  = 
ORIGINATOR     = 

OBJECT_NAME    = KUIPER-00275
OBJECT_ID      = 2026-030AF
CENTER_NAME    = EARTH
REF_FRAME      = TEME
TIME_SYSTEM    = UTC
MEAN_ELEMENT_THEORY = SGP/SGP4

EPOCH          = 2026-03-11T19:05:09.833280
MEAN_MOTION    = 15.34855682
ECCENTRICITY   = .00093749
INCLINATION    = 51.8835
RA_OF_ASC_NODE = 209.1868
ARG_OF_PERICENTER = 59.9130
MEAN_ANOMALY   = 300.2785

EPHEMERIS_TYPE = 0
CLASSIFICATION_TYPE = U
NORAD_CAT_ID   = 67793
ELEMENT_SET_NO = 999
REV_AT_EPOCH   = 541
BSTAR          = .73958282E-3
MEAN_MOTION_DOT = .25111E-3
MEAN_MOTION_DDOT = 0

CCSDS_OMM_VERS = 2.0
CREATION_DATE  = 
ORIGINATOR     = 

OBJECT_NAME    = KUIPER-00276
OBJECT_ID      = 2026-030AG
CENTER_NAME    = EARTH
REF_FRAME      = TEME
TIME_SYSTEM    = UTC
MEAN_ELEMENT_THEORY = SGP/SGP4

EPOCH          = 2026-03-11T21:51:43.759296
MEAN_MOTION    = 15.30116303
ECCENTRICITY   = .00194022
INCLINATION    = 51.8831
RA_OF_ASC_NODE = 209.1922
ARG_OF_PERICENTER = 69.0322
MEAN_ANOMALY   = 291.2736

EPHEMERIS_TYPE = 0
CLASSIFICATION_TYPE = U
NORAD_CAT_ID   = 67794
ELEMENT_SET_NO = 999
REV_AT_EPOCH   = 542
BSTAR          = .11091389E-2
MEAN_MOTION_DOT = .32754E-3
MEAN_MOTION_DDOT = 0

CCSDS_OMM_VERS = 2.0
CREATION_DATE  = 
ORIGINATOR     = 

OBJECT_NAME    = KUIPER-00279
OBJECT_ID      = 2026-030AH
CENTER_NAME    = EARTH
REF_FRAME      = TEME
TIME_SYSTEM    = UTC
MEAN_ELEMENT_THEORY = SGP/SGP4

EPOCH          = 2026-03-11T18:51:22.293216
MEAN_MOTION    = 15.35547033
ECCENTRICITY   = .00060787
INCLINATION    = 51.8810
RA_OF_ASC_NODE = 209.1164
ARG_OF_PERICENTER = 47.4868
MEAN_ANOMALY   = 312.6631

EPHEMERIS_TYPE = 0
CLASSIFICATION_TYPE = U
NORAD_CAT_ID   = 67795
ELEMENT_SET_NO = 999
REV_AT_EPOCH   = 541
BSTAR          = .11531321E-2
MEAN_MOTION_DOT = .40304E-3
MEAN_MOTION_DDOT = 0

CCSDS_OMM_VERS = 2.0
CREATION_DATE  = 
ORIGINATOR     = 

OBJECT_NAME    = CREW DRAGON 12
OBJECT_ID      = 2026-031A
CENTER_NAME    = EARTH
REF_FRAME      = TEME
TIME_SYSTEM    = UTC
MEAN_ELEMENT_THEORY = SGP/SGP4

EPOCH          = 2026-03-11T20:04:34.597056
MEAN_MOTION    = 15.48586968
ECCENTRICITY   = .00079729
INCLINATION    = 51.6324
RA_OF_ASC_NODE = 61.7417
ARG_OF_PERICENTER = 182.2925
MEAN_ANOMALY   = 177.8028

EPHEMERIS_TYPE = 0
CLASSIFICATION_TYPE = U
NORAD_CAT_ID   = 67796
ELEMENT_SET_NO = 999
REV_AT_EPOCH   = 55656
BSTAR          = .16153042E-3
MEAN_MOTION_DOT = .8338E-4
MEAN_MOTION_DDOT = 0

CCSDS_OMM_VERS = 2.0
CREATION_DATE  = 
ORIGINATOR     = 

OBJECT_NAME    = STARLINK-36800
OBJECT_ID      = 2026-032A
CENTER_NAME    = EARTH
REF_FRAME      = TEME
TIME_SYSTEM    = UTC
MEAN_ELEMENT_THEORY = SGP/SGP4

EPOCH          = 2026-03-11T23:31:57.384192
MEAN_MOTION    = 15.75207343
ECCENTRICITY   = .00013863
INCLINATION    = 97.2840
RA_OF_ASC_NODE = 257.5750
ARG_OF_PERICENTER = 92.0221
MEAN_ANOMALY   = 268.1203

EPHEMERIS_TYPE = 0
CLASSIFICATION_TYPE = U
NORAD_CAT_ID   = 67797
ELEMENT_SET_NO = 999
REV_AT_EPOCH   = 514
BSTAR          = .72708819E-3
MEAN_MOTION_DOT = .109807E-2
MEAN_MOTION_DDOT = 0

CCSDS_OMM_VERS = 2.0
CREATION_DATE  = 
ORIGINATOR     = 

OBJECT_NAME    = STARLINK-36798
OBJECT_ID      = 2026-032B
CENTER_NAME    = EARTH
REF_FRAME      = TEME
TIME_SYSTEM    = UTC
MEAN_ELEMENT_THEORY = SGP/SGP4

EPOCH          = 2026-03-11T23:08:34.099584
MEAN_MOTION    = 15.75241382
ECCENTRICITY   = .00018586
INCLINATION    = 97.2848
RA_OF_ASC_NODE = 257.5980
ARG_OF_PERICENTER = 145.8149
MEAN_ANOMALY   = 214.3237

EPHEMERIS_TYPE = 0
CLASSIFICATION_TYPE = U
NORAD_CAT_ID   = 67798
ELEMENT_SET_NO = 999
REV_AT_EPOCH   = 514
BSTAR          = .93195175E-3
MEAN_MOTION_DOT = .141521E-2
MEAN_MOTION_DDOT = 0

CCSDS_OMM_VERS = 2.0
CREATION_DATE  = 
ORIGINATOR     = 

OBJECT_NAME    = STARLINK-36804
OBJECT_ID      = 2026-032C
CENTER_NAME    = EARTH
REF_FRAME      = TEME
TIME_SYSTEM    = UTC
MEAN_ELEMENT_THEORY = SGP/SGP4

EPOCH          = 2026-03-11T23:29:24.674784
MEAN_MOTION    = 15.75199193
ECCENTRICITY   = .0001016
INCLINATION    = 97.2839
RA_OF_ASC_NODE = 257.5775
ARG_OF_PERICENTER = 120.1197
MEAN_ANOMALY   = 240.0169

EPHEMERIS_TYPE = 0
CLASSIFICATION_TYPE = U
NORAD_CAT_ID   = 67799
ELEMENT_SET_NO = 999
REV_AT_EPOCH   = 514
BSTAR          = .49403048E-3
MEAN_MOTION_DOT = .74229E-3
MEAN_MOTION_DDOT = 0

CCSDS_OMM_VERS = 2.0
CREATION_DATE  = 
ORIGINATOR     = 

OBJECT_NAME    = STARLINK-36354
OBJECT_ID      = 2026-032D
CENTER_NAME    = EARTH
REF_FRAME      = TEME
TIME_SYSTEM    = UTC
MEAN_ELEMENT_THEORY = SGP/SGP4

EPOCH          = 2026-03-11T23:13:39.525312
MEAN_MOTION    = 15.75265043
ECCENTRICITY   = .00010782
INCLINATION    = 97.2843
RA_OF_ASC_NODE = 257.5943
ARG_OF_PERICENTER = 82.8502
MEAN_ANOMALY   = 277.2886

EPHEMERIS_TYPE = 0
CLASSIFICATION_TYPE = U
NORAD_CAT_ID   = 67800
ELEMENT_SET_NO = 999
REV_AT_EPOCH   = 514
BSTAR          = .16844109E-2
MEAN_MOTION_DOT = .259747E-2
MEAN_MOTION_DDOT = 0

