KUIPER-00266            
1 67789U 26030AB  26070.78555111  .00023315  00000+0  77785-3 0  9996
2 67789  51.8812 209.8413 0023264  81.9114 278.4508 15.30706366  5402
KUIPER-00268            
1 67790U 26030AC  26070.83867950  .00044492  00000+0  12466-2 0  9994
2 67790  51.8858 208.7369 0004862  24.2947 335.8268 15.36161267  5423
KUIPER-00270            
1 67791U 26030AD  26070.79820906  .00043010  00000+0  12593-2 0  9996
2 67791  51.8796 209.1964 0010354  60.3934 299.8083 15.34759996  5414
KUIPER-00274            
1 67792U 26030AE  26070.77721834  .00013238  00000+0  45973-3 0  9993
2 67792  51.8832 209.7955 0018028  77.5662 282.7338 15.29936645  5401
KUIPER-00275            
1 67793U 26030AF  26070.79525270  .00025111  00000+0  73958-3 0  9999
2 67793  51.8835 209.1868 0009374  59.9130 300.2785 15.34855682  5410
KUIPER-00276            
1 67794U 26030AG  26070.91092314  .00032754  00000+0  11091-2 0  9992
2 67794  51.8831 209.1922 0019402  69.0322 291.2736 15.30116303  5428
KUIPER-00279            
1 67795U 26030AH  26070.78567469  .00040304  00000+0  11531-2 0  9995
2 67795  51.8810 209.1164 0006078  47.4868 312.6631 15.35547033  5418
CREW DRAGON 12          
1 67796U 26031A   26070.83651154  .00008338  00000+0  16153-3 0  9995
2 67796  51.6324  61.7417 0007972 182.2925 177.8028 15.48586968556568
STARLINK-36800          
1 67797U 26032A   26070.98052528  .00109807  00000+0  72709-3 0  9995
2 67797  97.2840 257.5750 0001386  92.0221 268.1203 15.75207343  5142
STARLINK-36798          
1 67798U 26032B   26070.96428356  .00141521  00000+0  93195-3 0  9991
2 67798  97.2848 257.5980 0001858 145.8149 214.3237 15.75241382  5147
STARLINK-36804          
1 67799U 26032C   26070.97875781  .00074229  00000+0  49403-3 0  9994
2 67799  97.2839 257.5775 0001016 120.1197 240.0169 15.75199193  5147
STARLINK-36354          
1 67800U 26032D   26070.96781858  .00259747  00000+0  16844-2 0  9999
2 67800  97.2843 257.5943 0001078  82.8502 277.2886 15.75265043  5140
